CCSDS_OMM_VERS = 2.0
CREATION_DATE  = 
ORIGINATOR     = 

OBJECT_NAME    = SL-14 R/B
OBJECT_ID      = 1991-042B
CENTER_NAME    = EARTH
REF_FRAME      = TEME
TIME_SYSTEM    = UTC
MEAN_ELEMENT_THEORY = SGP/SGP4

EPOCH          = 2026-01-30T08:02:34.717056
MEAN_MOTION    = 14.81792881
ECCENTRICITY   = .0017357
INCLINATION    = 82.4907
RA_OF_ASC_NODE = 256.1573
ARG_OF_PERICENTER = 12.2268
MEAN_ANOMALY   = 347.9363

EPHEMERIS_TYPE = 0
CLASSIFICATION_TYPE = U
NORAD_CAT_ID   = 21423
ELEMENT_SET_NO = 999
REV_AT_EPOCH   = 84739
BSTAR          = .66718E-4
MEAN_MOTION_DOT = .551E-5
MEAN_MOTION_DDOT = 0

CCSDS_OMM_VERS = 2.0
CREATION_DATE  = 
ORIGINATOR     = 

OBJECT_NAME    = ERS-1
OBJECT_ID      = 1991-050A
CENTER_NAME    = EARTH
REF_FRAME      = TEME
TIME_SYSTEM    = UTC
MEAN_ELEMENT_THEORY = SGP/SGP4

EPOCH          = 2026-01-30T11:10:57.287712
MEAN_MOTION    = 14.39415863
ECCENTRICITY   = .0031223
INCLINATION    = 98.7896
RA_OF_ASC_NODE = 47.7396
ARG_OF_PERICENTER = 317.1505
MEAN_ANOMALY   = 42.7249

EPHEMERIS_TYPE = 0
CLASSIFICATION_TYPE = U
NORAD_CAT_ID   = 21574
ELEMENT_SET_NO = 999
REV_AT_EPOCH   = 81023
BSTAR          = .18904E-3
MEAN_MOTION_DOT = .545E-5
MEAN_MOTION_DDOT = 0

CCSDS_OMM_VERS = 2.0
CREATION_DATE  = 
ORIGINATOR     = 

OBJECT_NAME    = ARIANE 40 R/B
OBJECT_ID      = 1991-050F
CENTER_NAME    = EARTH
REF_FRAME      = TEME
TIME_SYSTEM    = UTC
MEAN_ELEMENT_THEORY = SGP/SGP4

EPOCH          = 2026-01-30T09:35:34.958688
MEAN_MOTION    = 14.42863406
ECCENTRICITY   = .0003252
INCLINATION    = 98.2093
RA_OF_ASC_NODE = 84.0584
ARG_OF_PERICENTER = 169.3224
MEAN_ANOMALY   = 190.8037

EPHEMERIS_TYPE = 0
CLASSIFICATION_TYPE = U
NORAD_CAT_ID   = 21610
ELEMENT_SET_NO = 999
REV_AT_EPOCH   = 81347
BSTAR          = .15454E-3
MEAN_MOTION_DOT = .474E-5
MEAN_MOTION_DDOT = 0

CCSDS_OMM_VERS = 2.0
CREATION_DATE  = 
ORIGINATOR     = 

OBJECT_NAME    = INTERCOSMOS 25
OBJECT_ID      = 1991-086A
CENTER_NAME    = EARTH
REF_FRAME      = TEME
TIME_SYSTEM    = UTC
MEAN_ELEMENT_THEORY = SGP/SGP4

EPOCH          = 2026-01-30T08:21:19.100736
MEAN_MOTION    = 12.11897174
ECCENTRICITY   = .1486386
INCLINATION    = 82.6092
RA_OF_ASC_NODE = 333.1779
ARG_OF_PERICENTER = 199.5488
MEAN_ANOMALY   = 154.2255

EPHEMERIS_TYPE = 0
CLASSIFICATION_TYPE = U
NORAD_CAT_ID   = 21819
ELEMENT_SET_NO = 999
REV_AT_EPOCH   = 49204
BSTAR          = .32005E-3
MEAN_MOTION_DOT = .1631E-4
MEAN_MOTION_DDOT = 0

CCSDS_OMM_VERS = 2.0
CREATION_DATE  = 
ORIGINATOR     = 

OBJECT_NAME    = SL-8 R/B
OBJECT_ID      = 1992-008B
CENTER_NAME    = EARTH
REF_FRAME      = TEME
TIME_SYSTEM    = UTC
MEAN_ELEMENT_THEORY = SGP/SGP4

EPOCH          = 2026-01-30T06:24:18.871776
MEAN_MOTION    = 13.75968796
ECCENTRICITY   = .0033449
INCLINATION    = 82.9280
RA_OF_ASC_NODE = 296.3594
ARG_OF_PERICENTER = 241.2274
MEAN_ANOMALY   = 241.2063

EPHEMERIS_TYPE = 0
CLASSIFICATION_TYPE = U
NORAD_CAT_ID   = 21876
ELEMENT_SET_NO = 999
REV_AT_EPOCH   = 70413
BSTAR          = .58635E-4
MEAN_MOTION_DOT = .72E-6
MEAN_MOTION_DDOT = 0

CCSDS_OMM_VERS = 2.0
CREATION_DATE  = 
ORIGINATOR     = 

OBJECT_NAME    = SL-8 R/B
OBJECT_ID      = 1992-020B
CENTER_NAME    = EARTH
REF_FRAME      = TEME
TIME_SYSTEM    = UTC
MEAN_ELEMENT_THEORY = SGP/SGP4

EPOCH          = 2026-01-30T12:06:35.465760
MEAN_MOTION    = 13.75543030
ECCENTRICITY   = .002981
INCLINATION    = 82.9315
RA_OF_ASC_NODE = 182.1052
ARG_OF_PERICENTER = 46.2874
MEAN_ANOMALY   = 17.4502

EPHEMERIS_TYPE = 0
CLASSIFICATION_TYPE = U
NORAD_CAT_ID   = 21938
ELEMENT_SET_NO = 999
REV_AT_EPOCH   = 69588
BSTAR          = .12879E-3
MEAN_MOTION_DOT = .14E-5
MEAN_MOTION_DDOT = 0

CCSDS_OMM_VERS = 2.0
CREATION_DATE  = 
ORIGINATOR     = 

OBJECT_NAME    = USA 81
OBJECT_ID      = 1992-023A
CENTER_NAME    = EARTH
REF_FRAME      = TEME
TIME_SYSTEM    = UTC
MEAN_ELEMENT_THEORY = SGP/SGP4

EPOCH          = 2026-01-30T10:42:52.001280
MEAN_MOTION    = 14.32352327
ECCENTRICITY   = .000225
INCLINATION    = 85.0117
RA_OF_ASC_NODE = 153.4907
ARG_OF_PERICENTER = 111.0751
MEAN_ANOMALY   = 249.0683

EPHEMERIS_TYPE = 0
CLASSIFICATION_TYPE = U
NORAD_CAT_ID   = 21949
ELEMENT_SET_NO = 999
REV_AT_EPOCH   = 8931
BSTAR          = .99082E-4
MEAN_MOTION_DOT = .287E-5
MEAN_MOTION_DDOT = 0

CCSDS_OMM_VERS = 2.0
CREATION_DATE  = 
ORIGINATOR     = 

OBJECT_NAME    = COSMOS 2219
OBJECT_ID      = 1992-076A
CENTER_NAME    = EARTH
REF_FRAME      = TEME
TIME_SYSTEM    = UTC
MEAN_ELEMENT_THEORY = SGP/SGP4

EPOCH          = 2026-01-30T11:07:40.426176
MEAN_MOTION    = 14.14079150
ECCENTRICITY   = .0020734
INCLINATION    = 71.0598
RA_OF_ASC_NODE = 97.9834
ARG_OF_PERICENTER = 260.1775
MEAN_ANOMALY   = 99.7006

EPHEMERIS_TYPE = 0
CLASSIFICATION_TYPE = U
NORAD_CAT_ID   = 22219
ELEMENT_SET_NO = 999
REV_AT_EPOCH   = 71297
BSTAR          = -.96241E-4
MEAN_MOTION_DOT = -.231E-5
MEAN_MOTION_DDOT = 0

CCSDS_OMM_VERS = 2.0
CREATION_DATE  = 
ORIGINATOR     = 

OBJECT_NAME    = SL-16 R/B
OBJECT_ID      = 1992-076B
CENTER_NAME    = EARTH
REF_FRAME      = TEME
TIME_SYSTEM    = UTC
MEAN_ELEMENT_THEORY = SGP/SGP4

EPOCH          = 2026-01-30T02:18:04.266144
MEAN_MOTION    = 14.16850848
ECCENTRICITY   = .001213
INCLINATION    = 70.9987
RA_OF_ASC_NODE = 269.6725
ARG_OF_PERICENTER = 163.8846
MEAN_ANOMALY   = 346.2219

EPHEMERIS_TYPE = 0
CLASSIFICATION_TYPE = U
NORAD_CAT_ID   = 22220
ELEMENT_SET_NO = 999
REV_AT_EPOCH   = 71636
BSTAR          = .95752257E-4
MEAN_MOTION_DOT = .144E-5
MEAN_MOTION_DDOT = 0

CCSDS_OMM_VERS = 2.0
CREATION_DATE  = 
ORIGINATOR     = 

OBJECT_NAME    = COSMOS 2221
OBJECT_ID      = 1992-080A
CENTER_NAME    = EARTH
REF_FRAME      = TEME
TIME_SYSTEM    = UTC
MEAN_ELEMENT_THEORY = SGP/SGP4

EPOCH          = 2026-01-30T05:56:25.741824
MEAN_MOTION    = 14.96033329
ECCENTRICITY   = .0013603
INCLINATION    = 82.5067
RA_OF_ASC_NODE = 315.8927
ARG_OF_PERICENTER = 328.3626
MEAN_ANOMALY   = 31.6776

EPHEMERIS_TYPE = 0
CLASSIFICATION_TYPE = U
NORAD_CAT_ID   = 22236
ELEMENT_SET_NO = 999
REV_AT_EPOCH   = 77504
BSTAR          = .28686E-3
MEAN_MOTION_DOT = .325E-4
MEAN_MOTION_DDOT = 0

CCSDS_OMM_VERS = 2.0
CREATION_DATE  = 
ORIGINATOR     = 

OBJECT_NAME    = SL-16 R/B
OBJECT_ID      = 1992-093B
CENTER_NAME    = EARTH
REF_FRAME      = TEME
TIME_SYSTEM    = UTC
MEAN_ELEMENT_THEORY = SGP/SGP4

EPOCH          = 2026-01-30T12:09:54.636768
MEAN_MOTION    = 14.15443266
ECCENTRICITY   = .0004868
INCLINATION    = 71.0213
RA_OF_ASC_NODE = 84.4252
ARG_OF_PERICENTER = 334.1665
MEAN_ANOMALY   = 25.9214

EPHEMERIS_TYPE = 0
CLASSIFICATION_TYPE = U
NORAD_CAT_ID   = 22285
ELEMENT_SET_NO = 999
REV_AT_EPOCH   = 70775
BSTAR          = -.55627E-4
MEAN_MOTION_DOT = -.156E-5
MEAN_MOTION_DDOT = 0

CCSDS_OMM_VERS = 2.0
CREATION_DATE  = 
ORIGINATOR     = 

OBJECT_NAME    = COSMOS 2228
OBJECT_ID      = 1992-094A
CENTER_NAME    = EARTH
REF_FRAME      = TEME
TIME_SYSTEM    = UTC
MEAN_ELEMENT_THEORY = SGP/SGP4

EPOCH          = 2026-01-30T11:44:52.956384
MEAN_MOTION    = 14.97013311
ECCENTRICITY   = .0019515
INCLINATION    = 82.5176
RA_OF_ASC_NODE = 273.8880
ARG_OF_PERICENTER = 71.6322
MEAN_ANOMALY   = 288.7021

EPHEMERIS_TYPE = 0
CLASSIFICATION_TYPE = U
NORAD_CAT_ID   = 22286
ELEMENT_SET_NO = 999
REV_AT_EPOCH   = 77034
BSTAR          = .28355E-3
MEAN_MOTION_DOT = .3301E-4
MEAN_MOTION_DDOT = 0

