SL-14 R/B               
1 21423U 91042B   26030.33512404  .00000551  00000+0  66718-4 0  9993
2 21423  82.4907 256.1573 0017357  12.2268 347.9363 14.81792881847392
ERS-1                   
1 21574U 91050A   26030.46594083  .00000545  00000+0  18904-3 0  9992
2 21574  98.7896  47.7396 0031223 317.1505  42.7249 14.39415863810233
ARIANE 40 R/B           
1 21610U 91050F   26030.39971017  .00000474  00000+0  15454-3 0  9999
2 21610  98.2093  84.0584 0003252 169.3224 190.8037 14.42863406813470
INTERCOSMOS 25          
1 21819U 91086A   26030.34813774  .00001631  00000+0  32005-3 0  9996
2 21819  82.6092 333.1779 1486386 199.5488 154.2255 12.11897174492047
SL-8 R/B                
1 21876U 92008B   26030.26688509  .00000072  00000+0  58635-4 0  9997
2 21876  82.9280 296.3594 0033449 241.2274 241.2063 13.75968796704132
SL-8 R/B                
1 21938U 92020B   26030.50457715  .00000140  00000+0  12879-3 0  9995
2 21938  82.9315 182.1052 0029810  46.2874  17.4502 13.75543030695889
USA 81                  
1 21949U 92023A   26030.44643520  .00000287  00000+0  99082-4 0  9998
2 21949  85.0117 153.4907 0002250 111.0751 249.0683 14.32352327 89318
COSMOS 2219             
1 22219U 92076A   26030.46366234 -.00000231  00000+0 -96241-4 0  9998
2 22219  71.0598  97.9834 0020734 260.1775  99.7006 14.14079150712971
SL-16 R/B               
1 22220U 92076B   26030.09588271  .00000144  00000+0  95752-4 0  9993
2 22220  70.9987 269.6725 0012130 163.8846 346.2219 14.16850848716365
COSMOS 2221             
1 22236U 92080A   26030.24752016  .00003250  00000+0  28686-3 0  9994
2 22236  82.5067 315.8927 0013603 328.3626  31.6776 14.96033329775046
SL-16 R/B               
1 22285U 92093B   26030.50688237 -.00000156  00000+0 -55627-4 0  9994
2 22285  71.0213  84.4252 0004868 334.1665  25.9214 14.15443266707759
COSMOS 2228             
1 22286U 92094A   26030.48950181  .00003301  00000+0  28355-3 0  9993
2 22286  82.5176 273.8880 0019515  71.6322 288.7021 14.97013311770348
